{"type": "FeatureCollection", "features": [ {"type": "Feature", "properties": {"norad_id": 35465, "name": "COSMOS 2251 DEB", "group": "cosmos-2251-debris", "lat": 70.92264794227701, "lon": -44.42598332645285, "alt_km": 751.8016688443213, "timestamp": "2025-12-15T14:57:58.207882+00:00", "meta": {"OBJECT_NAME": "COSMOS 2251 DEB", "OBJECT_ID": "1993-036ALK", "EPOCH": "2025-12-14T06:55:15.434976", "MEAN_MOTION": 14.44324437, "ECCENTRICITY": 0.00641475, "INCLINATION": 73.9983, "RA_OF_ASC_NODE": 194.1379, "ARG_OF_PERICENTER": 354.0798, "MEAN_ANOMALY": 5.9592, "EPHEMERIS_TYPE": 0, "CLASSIFICATION_TYPE": "U", "NORAD_CAT_ID": 35465, "ELEMENT_SET_NO": 999, "REV_AT_EPOCH": 87264, "BSTAR": 0.00045193866, "MEAN_MOTION_DOT": 1.567e-05, "MEAN_MOTION_DDOT": 0}, "tle": {"line1": "1 35465U 93036ALK 25348.28837309  .00001567  00000+0  45194-3 0  9990", "line2": "2 35465  73.9983 194.1379 0064147 354.0798   5.9592 14.44324437872649"}}, "geometry": {"type": "Point", "coordinates": [-44.42598332645285, 70.92264794227701]}}, {"type": "Feature", "properties": {"norad_id": 35469, "name": "COSMOS 2251 DEB", "group": "cosmos-2251-debris", "lat": -6.828941030126021, "lon": 16.48312902450666, "alt_km": 784.3065615201431, "timestamp": "2025-12-15T14:57:58.207892+00:00", "meta": {"OBJECT_NAME": "COSMOS 2251 DEB", "OBJECT_ID": "1993-036ALP", "EPOCH": "2025-12-14T19:07:35.904576", "MEAN_MOTION": 14.49821645, "ECCENTRICITY": 0.00768496, "INCLINATION": 74.0173, "RA_OF_ASC_NODE": 20.0032, "ARG_OF_PERICENTER": 174.8601, "MEAN_ANOMALY": 185.3367, "EPHEMERIS_TYPE": 0, "CLASSIFICATION_TYPE": "U", "NORAD_CAT_ID": 35469, "ELEMENT_SET_NO": 999, "REV_AT_EPOCH": 88141, "BSTAR": 0.00011773549, "MEAN_MOTION_DOT": 4.42e-06, "MEAN_MOTION_DDOT": 0}, "tle": {"line1": "1 35469U 93036ALP 25348.79694334  .00000442  00000+0  11774-3 0  9997", "line2": "2 35469  74.0173  20.0032 0076849 174.8601 185.3367 14.49821645881418"}}, "geometry": {"type": "Point", "coordinates": [16.48312902450666, -6.828941030126021]}}, {"type": "Feature", "properties": {"norad_id": 35475, "name": "COSMOS 2251 DEB", "group": "cosmos-2251-debris", "lat": 50.21179964034369, "lon": -179.84495542735536, "alt_km": 671.2085472767776, "timestamp": "2025-12-15T14:57:58.207902+00:00", "meta": {"OBJECT_NAME": "COSMOS 2251 DEB", "OBJECT_ID": "1993-036ALV", "EPOCH": "2025-12-14T17:29:18.389184", "MEAN_MOTION": 14.69783926, "ECCENTRICITY": 0.00205186, "INCLINATION": 74.0212, "RA_OF_ASC_NODE": 161.7662, "ARG_OF_PERICENTER": 234.7463, "MEAN_ANOMALY": 125.1788, "EPHEMERIS_TYPE": 0, "CLASSIFICATION_TYPE": "U", "NORAD_CAT_ID": 35475, "ELEMENT_SET_NO": 999, "REV_AT_EPOCH": 65646, "BSTAR": 0.0015733167, "MEAN_MOTION_DOT": 9.401e-05, "MEAN_MOTION_DDOT": 0}, "tle": {"line1": "1 35475U 93036ALV 25348.72868506  .00009401  00000+0  15733-2 0  9993", "line2": "2 35475  74.0212 161.7662 0020518 234.7463 125.1788 14.69783926656460"}}, "geometry": {"type": "Point", "coordinates": [-179.84495542735536, 50.21179964034369]}}, {"type": "Feature", "properties": {"norad_id": 35476, "name": "COSMOS 2251 DEB", "group": "cosmos-2251-debris", "lat": -37.53814555855683, "lon": 42.49864664486549, "alt_km": 645.5765426411235, "timestamp": "2025-12-15T14:57:58.207911+00:00", "meta": {"OBJECT_NAME": "COSMOS 2251 DEB", "OBJECT_ID": "1993-036ALW", "EPOCH": "2025-12-14T08:46:26.729760", "MEAN_MOTION": 14.75728998, "ECCENTRICITY": 0.00177068, "INCLINATION": 73.9788, "RA_OF_ASC_NODE": 57.7227, "ARG_OF_PERICENTER": 38.6252, "MEAN_ANOMALY": 81.7353, "EPHEMERIS_TYPE": 0, "CLASSIFICATION_TYPE": "U", "NORAD_CAT_ID": 35476, "ELEMENT_SET_NO": 999, "REV_AT_EPOCH": 87911, "BSTAR": 0.001724896, "MEAN_MOTION_DOT": 0.00011821, "MEAN_MOTION_DDOT": 0}, "tle": {"line1": "1 35476U 93036ALW 25348.36558715  .00011821  00000+0  17249-2 0  9995", "line2": "2 35476  73.9788  57.7227 0017706  38.6252  81.7353 14.75728998879119"}}, "geometry": {"type": "Point", "coordinates": [42.49864664486549, -37.53814555855683]}}, {"type": "Feature", "properties": {"norad_id": 35580, "name": "COSMOS 2251 DEB", "group": "cosmos-2251-debris", "lat": -8.194453318826938, "lon": -3.795210655941976, "alt_km": 750.3329141148415, "timestamp": "2025-12-15T14:57:58.207920+00:00", "meta": {"OBJECT_NAME": "COSMOS 2251 DEB", "OBJECT_ID": "1993-036ALX", "EPOCH": "2025-12-10T21:17:20.461632", "MEAN_MOTION": 13.83850084, "ECCENTRICITY": 0.0281508, "INCLINATION": 73.9016, "RA_OF_ASC_NODE": 181.8733, "ARG_OF_PERICENTER": 187.4326, "MEAN_ANOMALY": 172.2587, "EPHEMERIS_TYPE": 0, "CLASSIFICATION_TYPE": "U", "NORAD_CAT_ID": 35580, "ELEMENT_SET_NO": 999, "REV_AT_EPOCH": 62231, "BSTAR": 0.0026077, "MEAN_MOTION_DOT": 3.904e-05, "MEAN_MOTION_DDOT": 0}, "tle": {"line1": "1 35580U 93036ALX 25344.88704238  .00003904  00000+0  26077-2 0  9999", "line2": "2 35580  73.9016 181.8733 0281508 187.4326 172.2587 13.83850084622311"}}, "geometry": {"type": "Point", "coordinates": [-3.795210655941976, -8.194453318826938]}}, {"type": "Feature", "properties": {"norad_id": 35583, "name": "COSMOS 2251 DEB", "group": "cosmos-2251-debris", "lat": -45.466642469566345, "lon": -169.70848715071472, "alt_km": 1003.6140709016654, "timestamp": "2025-12-15T14:57:58.207930+00:00", "meta": {"OBJECT_NAME": "COSMOS 2251 DEB", "OBJECT_ID": "1993-036AMA", "EPOCH": "2025-12-14T07:19:11.532576", "MEAN_MOTION": 13.55338533, "ECCENTRICITY": 0.0385394, "INCLINATION": 73.9165, "RA_OF_ASC_NODE": 209.4795, "ARG_OF_PERICENTER": 233.5423, "MEAN_ANOMALY": 122.9594, "EPHEMERIS_TYPE": 0, "CLASSIFICATION_TYPE": "U", "NORAD_CAT_ID": 35583, "ELEMENT_SET_NO": 999, "REV_AT_EPOCH": 82433, "BSTAR": 0.00090318033, "MEAN_MOTION_DOT": 9.83e-06, "MEAN_MOTION_DDOT": 0}, "tle": {"line1": "1 35583U 93036AMA 25348.30499459  .00000983  00000+0  90318-3 0  9993", "line2": "2 35583  73.9165 209.4795 0385394 233.5423 122.9594 13.55338533824338"}}, "geometry": {"type": "Point", "coordinates": [-169.70848715071472, -45.466642469566345]}}, {"type": "Feature", "properties": {"norad_id": 35585, "name": "COSMOS 2251 DEB", "group": "cosmos-2251-debris", "lat": 66.68874324700843, "lon": 121.75703956899609, "alt_km": 1166.022926697512, "timestamp": "2025-12-15T14:57:58.207939+00:00", "meta": {"OBJECT_NAME": "COSMOS 2251 DEB", "OBJECT_ID": "1993-036AMC", "EPOCH": "2025-12-14T09:06:11.182176", "MEAN_MOTION": 13.75254554, "ECCENTRICITY": 0.03105372, "INCLINATION": 73.9727, "RA_OF_ASC_NODE": 345.674, "ARG_OF_PERICENTER": 257.6097, "MEAN_ANOMALY": 173.3475, "EPHEMERIS_TYPE": 0, "CLASSIFICATION_TYPE": "U", "NORAD_CAT_ID": 35585, "ELEMENT_SET_NO": 999, "REV_AT_EPOCH": 64086, "BSTAR": 0.0012984888, "MEAN_MOTION_DOT": 1.744e-05, "MEAN_MOTION_DDOT": 0}, "tle": {"line1": "1 35585U 93036AMC 25348.37929609  .00001744  00000+0  12985-2 0  9996", "line2": "2 35585  73.9727 345.6740 0310537 257.6097 173.3475 13.75254554640862"}}, "geometry": {"type": "Point", "coordinates": [121.75703956899609, 66.68874324700843]}}, {"type": "Feature", "properties": {"norad_id": 35586, "name": "COSMOS 2251 DEB", "group": "cosmos-2251-debris", "lat": 50.26655966058975, "lon": -41.97861710711333, "alt_km": 1197.9742777325719, "timestamp": "2025-12-15T14:57:58.207948+00:00", "meta": {"OBJECT_NAME": "COSMOS 2251 DEB", "OBJECT_ID": "1993-036AMD", "EPOCH": "2025-12-14T14:41:57.929856", "MEAN_MOTION": 13.52086543, "ECCENTRICITY": 0.04045341, "INCLINATION": 74.0206, "RA_OF_ASC_NODE": 299.4762, "ARG_OF_PERICENTER": 174.414, "MEAN_ANOMALY": 3.0917, "EPHEMERIS_TYPE": 0, "CLASSIFICATION_TYPE": "U", "NORAD_CAT_ID": 35586, "ELEMENT_SET_NO": 999, "REV_AT_EPOCH": 60407, "BSTAR": 0.00036473262, "MEAN_MOTION_DOT": 3.81e-06, "MEAN_MOTION_DDOT": 0}, "tle": {"line1": "1 35586U 93036AMD 25348.61247604  .00000381  00000+0  36473-3 0  9997", "line2": "2 35586  74.0206 299.4762 0404534 174.4140   3.0917 13.52086543604072"}}, "geometry": {"type": "Point", "coordinates": [-41.97861710711333, 50.26655966058975]}}, {"type": "Feature", "properties": {"norad_id": 35587, "name": "COSMOS 2251 DEB", "group": "cosmos-2251-debris", "lat": 72.95868694174253, "lon": 122.1652463787991, "alt_km": 714.4678217480587, "timestamp": "2025-12-15T14:57:58.207957+00:00", "meta": {"OBJECT_NAME": "COSMOS 2251 DEB", "OBJECT_ID": "1993-036AME", "EPOCH": "2025-12-14T20:37:50.785248", "MEAN_MOTION": 14.71528954, "ECCENTRICITY": 0.01025521, "INCLINATION": 74.0053, "RA_OF_ASC_NODE": 54.2968, "ARG_OF_PERICENTER": 241.4805, "MEAN_ANOMALY": 117.6013, "EPHEMERIS_TYPE": 0, "CLASSIFICATION_TYPE": "U", "NORAD_CAT_ID": 35587, "ELEMENT_SET_NO": 999, "REV_AT_EPOCH": 66377, "BSTAR": 0.00024093768, "MEAN_MOTION_DOT": 1.587e-05, "MEAN_MOTION_DDOT": 0}, "tle": {"line1": "1 35587U 93036AME 25348.85961557  .00001587  00000+0  24094-3 0  9999", "line2": "2 35587  74.0053  54.2968 0102552 241.4805 117.6013 14.71528954663776"}}, "geometry": {"type": "Point", "coordinates": [122.1652463787991, 72.95868694174253]}}, {"type": "Feature", "properties": {"norad_id": 35593, "name": "COSMOS 2251 DEB", "group": "cosmos-2251-debris", "lat": 71.18548237669148, "lon": 46.39453650512898, "alt_km": 873.8602060646799, "timestamp": "2025-12-15T14:57:58.207966+00:00", "meta": {"OBJECT_NAME": "COSMOS 2251 DEB", "OBJECT_ID": "1993-036AML", "EPOCH": "2025-12-14T13:13:53.089824", "MEAN_MOTION": 14.25606078, "ECCENTRICITY": 0.01051927, "INCLINATION": 74.0859, "RA_OF_ASC_NODE": 285.1888, "ARG_OF_PERICENTER": 291.3038, "MEAN_ANOMALY": 67.6904, "EPHEMERIS_TYPE": 0, "CLASSIFICATION_TYPE": "U", "NORAD_CAT_ID": 35593, "ELEMENT_SET_NO": 999, "REV_AT_EPOCH": 85091, "BSTAR": 0.00082038615, "MEAN_MOTION_DOT": 2.033e-05, "MEAN_MOTION_DDOT": 0}, "tle": {"line1": "1 35593U 93036AML 25348.55130891  .00002033  00000+0  82039-3 0  9992", "line2": "2 35593  74.0859 285.1888 0105192 291.3038  67.6904 14.25606078850918"}}, "geometry": {"type": "Point", "coordinates": [46.39453650512898, 71.18548237669148]}}]}